{"type": "FeatureCollection", "features": [ {"type": "Feature", "properties": {"norad_id": 35773, "name": "COSMOS 2251 DEB", "group": "cosmos-2251-debris", "lat": 44.45305910288547, "lon": -16.500108684600143, "alt_km": 675.6560140427973, "timestamp": "2025-12-19T20:43:00.482551+00:00", "meta": {"OBJECT_NAME": "COSMOS 2251 DEB", "OBJECT_ID": "1993-036ART", "EPOCH": "2025-12-18T08:22:33.568032", "MEAN_MOTION": 14.62099226, "ECCENTRICITY": 0.00453246, "INCLINATION": 74.0074, "RA_OF_ASC_NODE": 330.0608, "ARG_OF_PERICENTER": 128.4715, "MEAN_ANOMALY": 232.0532, "EPHEMERIS_TYPE": 0, "CLASSIFICATION_TYPE": "U", "NORAD_CAT_ID": 35773, "ELEMENT_SET_NO": 999, "REV_AT_EPOCH": 86921, "BSTAR": 0.00045597488, "MEAN_MOTION_DOT": 2.295e-05, "MEAN_MOTION_DDOT": 0}, "tle": {"line1": "1 35773U 93036ART 25352.34899963  .00002295  00000+0  45597-3 0  9994", "line2": "2 35773  74.0074 330.0608 0045324 128.4715 232.0532 14.62099226869219"}}, "geometry": {"type": "Point", "coordinates": [-16.500108684600143, 44.45305910288547]}}, {"type": "Feature", "properties": {"norad_id": 35777, "name": "COSMOS 2251 DEB", "group": "cosmos-2251-debris", "lat": -1.8215682901785675, "lon": -49.1722246536543, "alt_km": 1405.4271593174208, "timestamp": "2025-12-19T20:43:00.482562+00:00", "meta": {"OBJECT_NAME": "COSMOS 2251 DEB", "OBJECT_ID": "1993-036ARX", "EPOCH": "2025-12-18T07:54:51.389280", "MEAN_MOTION": 13.41305779, "ECCENTRICITY": 0.04520138, "INCLINATION": 73.7704, "RA_OF_ASC_NODE": 313.8075, "ARG_OF_PERICENTER": 207.8246, "MEAN_ANOMALY": 306.1255, "EPHEMERIS_TYPE": 0, "CLASSIFICATION_TYPE": "U", "NORAD_CAT_ID": 35777, "ELEMENT_SET_NO": 999, "REV_AT_EPOCH": 79759, "BSTAR": 0.00020170503, "MEAN_MOTION_DOT": 1.82e-06, "MEAN_MOTION_DDOT": 0}, "tle": {"line1": "1 35777U 93036ARX 25352.32976145  .00000182  00000+0  20171-3 0  9998", "line2": "2 35777  73.7704 313.8075 0452013 207.8246 306.1255 13.41305779797599"}}, "geometry": {"type": "Point", "coordinates": [-49.1722246536543, -1.8215682901785675]}}, {"type": "Feature", "properties": {"norad_id": 35784, "name": "COSMOS 2251 DEB", "group": "cosmos-2251-debris", "lat": 61.247132972114315, "lon": -135.10240943652286, "alt_km": 719.9279553309425, "timestamp": "2025-12-19T20:43:00.482573+00:00", "meta": {"OBJECT_NAME": "COSMOS 2251 DEB", "OBJECT_ID": "1993-036ASE", "EPOCH": "2025-12-17T23:28:57.859680", "MEAN_MOTION": 14.50055355, "ECCENTRICITY": 0.00415956, "INCLINATION": 74.0403, "RA_OF_ASC_NODE": 79.8718, "ARG_OF_PERICENTER": 209.9484, "MEAN_ANOMALY": 149.9297, "EPHEMERIS_TYPE": 0, "CLASSIFICATION_TYPE": "U", "NORAD_CAT_ID": 35784, "ELEMENT_SET_NO": 999, "REV_AT_EPOCH": 65782, "BSTAR": 0.00024795111, "MEAN_MOTION_DOT": 9.44e-06, "MEAN_MOTION_DDOT": 0}, "tle": {"line1": "1 35784U 93036ASE 25351.97844745  .00000944  00000+0  24795-3 0  9998", "line2": "2 35784  74.0403  79.8718 0041595 209.9484 149.9297 14.50055355657829"}}, "geometry": {"type": "Point", "coordinates": [-135.10240943652286, 61.247132972114315]}}, {"type": "Feature", "properties": {"norad_id": 35786, "name": "COSMOS 2251 DEB", "group": "cosmos-2251-debris", "lat": 73.90683396633108, "lon": 113.53504474025489, "alt_km": 657.2709060939342, "timestamp": "2025-12-19T20:43:00.482583+00:00", "meta": {"OBJECT_NAME": "COSMOS 2251 DEB", "OBJECT_ID": "1993-036ASG", "EPOCH": "2025-12-17T11:00:13.182624", "MEAN_MOTION": 14.66275248, "ECCENTRICITY": 0.00336818, "INCLINATION": 74.0147, "RA_OF_ASC_NODE": 34.662, "ARG_OF_PERICENTER": 163.3391, "MEAN_ANOMALY": 196.8894, "EPHEMERIS_TYPE": 0, "CLASSIFICATION_TYPE": "U", "NORAD_CAT_ID": 35786, "ELEMENT_SET_NO": 999, "REV_AT_EPOCH": 73477, "BSTAR": 0.00069598569, "MEAN_MOTION_DOT": 3.84e-05, "MEAN_MOTION_DDOT": 0}, "tle": {"line1": "1 35786U 93036ASG 25351.45848591  .00003840  00000+0  69599-3 0  9995", "line2": "2 35786  74.0147  34.6620 0033681 163.3391 196.8894 14.66275248734770"}}, "geometry": {"type": "Point", "coordinates": [113.53504474025489, 73.90683396633108]}}, {"type": "Feature", "properties": {"norad_id": 35789, "name": "COSMOS 2251 DEB", "group": "cosmos-2251-debris", "lat": 73.62072506660995, "lon": -11.858456584068609, "alt_km": 756.7880156756064, "timestamp": "2025-12-19T20:43:00.482594+00:00", "meta": {"OBJECT_NAME": "COSMOS 2251 DEB", "OBJECT_ID": "1993-036ASK", "EPOCH": "2025-12-17T01:26:23.250912", "MEAN_MOTION": 14.35989528, "ECCENTRICITY": 0.00475408, "INCLINATION": 74.0381, "RA_OF_ASC_NODE": 276.4392, "ARG_OF_PERICENTER": 14.7858, "MEAN_ANOMALY": 345.4672, "EPHEMERIS_TYPE": 0, "CLASSIFICATION_TYPE": "U", "NORAD_CAT_ID": 35789, "ELEMENT_SET_NO": 999, "REV_AT_EPOCH": 61289, "BSTAR": 0.00011853028, "MEAN_MOTION_DOT": 3.23e-06, "MEAN_MOTION_DDOT": 0}, "tle": {"line1": "1 35789U 93036ASK 25351.05999133  .00000323  00000+0  11853-3 0  9996", "line2": "2 35789  74.0381 276.4392 0047540  14.7858 345.4672 14.35989528612894"}}, "geometry": {"type": "Point", "coordinates": [-11.858456584068609, 73.62072506660995]}}, {"type": "Feature", "properties": {"norad_id": 35793, "name": "COSMOS 2251 DEB", "group": "cosmos-2251-debris", "lat": 24.364905014814415, "lon": -141.25964296988005, "alt_km": 631.2088599996714, "timestamp": "2025-12-19T20:43:00.482604+00:00", "meta": {"OBJECT_NAME": "COSMOS 2251 DEB", "OBJECT_ID": "1993-036ASP", "EPOCH": "2025-12-16T22:59:16.262304", "MEAN_MOTION": 14.7878305, "ECCENTRICITY": 0.00021826, "INCLINATION": 74.0414, "RA_OF_ASC_NODE": 51.8941, "ARG_OF_PERICENTER": 103.608, "MEAN_ANOMALY": 69.9436, "EPHEMERIS_TYPE": 0, "CLASSIFICATION_TYPE": "U", "NORAD_CAT_ID": 35793, "ELEMENT_SET_NO": 999, "REV_AT_EPOCH": 65859, "BSTAR": 0.0012867323, "MEAN_MOTION_DOT": 9.439e-05, "MEAN_MOTION_DDOT": 0}, "tle": {"line1": "1 35793U 93036ASP 25350.95782711  .00009439  00000+0  12867-2 0  9993", "line2": "2 35793  74.0414  51.8941 0002182 103.6080  69.9436 14.78783050658591"}}, "geometry": {"type": "Point", "coordinates": [-141.25964296988005, 24.364905014814415]}}, {"type": "Feature", "properties": {"norad_id": 35824, "name": "COSMOS 2251 DEB", "group": "cosmos-2251-debris", "lat": 16.79657256964635, "lon": 41.566333625948666, "alt_km": 973.1985873221647, "timestamp": "2025-12-19T20:43:00.482615+00:00", "meta": {"OBJECT_NAME": "COSMOS 2251 DEB", "OBJECT_ID": "1993-036ASW", "EPOCH": "2025-12-17T20:12:45.612576", "MEAN_MOTION": 13.88437103, "ECCENTRICITY": 0.02481819, "INCLINATION": 73.8461, "RA_OF_ASC_NODE": 40.0198, "ARG_OF_PERICENTER": 125.2294, "MEAN_ANOMALY": 237.234, "EPHEMERIS_TYPE": 0, "CLASSIFICATION_TYPE": "U", "NORAD_CAT_ID": 35824, "ELEMENT_SET_NO": 999, "REV_AT_EPOCH": 84298, "BSTAR": 0.00079958432, "MEAN_MOTION_DOT": 1.204e-05, "MEAN_MOTION_DDOT": 0}, "tle": {"line1": "1 35824U 93036ASW 25351.84219459  .00001204  00000+0  79958-3 0  9998", "line2": "2 35824  73.8461  40.0198 0248181 125.2294 237.2340 13.88437103842984"}}, "geometry": {"type": "Point", "coordinates": [41.566333625948666, 16.79657256964635]}}, {"type": "Feature", "properties": {"norad_id": 35825, "name": "COSMOS 2251 DEB", "group": "cosmos-2251-debris", "lat": -46.07096884902494, "lon": 113.73720745149153, "alt_km": 977.3757822967154, "timestamp": "2025-12-19T20:43:00.482625+00:00", "meta": {"OBJECT_NAME": "COSMOS 2251 DEB", "OBJECT_ID": "1993-036ASX", "EPOCH": "2025-12-14T02:36:29.406816", "MEAN_MOTION": 13.70963524, "ECCENTRICITY": 0.03526119, "INCLINATION": 74.113, "RA_OF_ASC_NODE": 140.3902, "ARG_OF_PERICENTER": 235.9093, "MEAN_ANOMALY": 120.8102, "EPHEMERIS_TYPE": 0, "CLASSIFICATION_TYPE": "U", "NORAD_CAT_ID": 35825, "ELEMENT_SET_NO": 999, "REV_AT_EPOCH": 82527, "BSTAR": 0.0023333684, "MEAN_MOTION_DOT": 3.214e-05, "MEAN_MOTION_DDOT": 0}, "tle": {"line1": "1 35825U 93036ASX 25348.10867369  .00003214  00000+0  23334-2 0  9992", "line2": "2 35825  74.1130 140.3902 0352611 235.9093 120.8102 13.70963524825277"}}, "geometry": {"type": "Point", "coordinates": [113.73720745149153, -46.07096884902494]}}, {"type": "Feature", "properties": {"norad_id": 35829, "name": "COSMOS 2251 DEB", "group": "cosmos-2251-debris", "lat": 11.179799041905886, "lon": 88.09409628161877, "alt_km": 644.0238407013876, "timestamp": "2025-12-19T20:43:00.482636+00:00", "meta": {"OBJECT_NAME": "COSMOS 2251 DEB", "OBJECT_ID": "1993-036ATB", "EPOCH": "2025-12-17T00:21:46.598688", "MEAN_MOTION": 14.76400839, "ECCENTRICITY": 0.0005573, "INCLINATION": 74.0249, "RA_OF_ASC_NODE": 90.4281, "ARG_OF_PERICENTER": 146.0686, "MEAN_ANOMALY": 214.0846, "EPHEMERIS_TYPE": 0, "CLASSIFICATION_TYPE": "U", "NORAD_CAT_ID": 35829, "ELEMENT_SET_NO": 999, "REV_AT_EPOCH": 87838, "BSTAR": 0.001494418, "MEAN_MOTION_DOT": 0.00010373, "MEAN_MOTION_DDOT": 0}, "tle": {"line1": "1 35829U 93036ATB 25351.01512267  .00010373  00000+0  14944-2 0  9995", "line2": "2 35829  74.0249  90.4281 0005573 146.0686 214.0846 14.76400839878381"}}, "geometry": {"type": "Point", "coordinates": [88.09409628161877, 11.179799041905886]}}, {"type": "Feature", "properties": {"norad_id": 35830, "name": "COSMOS 2251 DEB", "group": "cosmos-2251-debris", "lat": 49.57371730824306, "lon": -86.65612857427416, "alt_km": 892.5311923063073, "timestamp": "2025-12-19T20:43:00.482646+00:00", "meta": {"OBJECT_NAME": "COSMOS 2251 DEB", "OBJECT_ID": "1993-036ATC", "EPOCH": "2025-12-17T01:01:27.071616", "MEAN_MOTION": 14.24015017, "ECCENTRICITY": 0.01218819, "INCLINATION": 73.8614, "RA_OF_ASC_NODE": 258.6041, "ARG_OF_PERICENTER": 226.0627, "MEAN_ANOMALY": 133.0413, "EPHEMERIS_TYPE": 0, "CLASSIFICATION_TYPE": "U", "NORAD_CAT_ID": 35830, "ELEMENT_SET_NO": 999, "REV_AT_EPOCH": 61325, "BSTAR": 0.00082142349, "MEAN_MOTION_DOT": 2.01e-05, "MEAN_MOTION_DDOT": 0}, "tle": {"line1": "1 35830U 93036ATC 25351.04267444  .00002010  00000+0  82142-3 0  9999", "line2": "2 35830  73.8614 258.6041 0121881 226.0627 133.0413 14.24015017613259"}}, "geometry": {"type": "Point", "coordinates": [-86.65612857427416, 49.57371730824306]}}]}